{"type": "FeatureCollection", "features": [ {"type": "Feature", "properties": {"norad_id": 66640, "name": "STARLINK-35921", "group": "last-30-days", "lat": 30.7642595273131, "lon": -174.65425680048185, "alt_km": 413.44158362422513, "timestamp": "2025-12-18T15:47:09.959736+00:00", "meta": {"OBJECT_NAME": "STARLINK-35921", "OBJECT_ID": "2025-271Z", "EPOCH": "2025-12-17T02:27:41.322240", "MEAN_MOTION": 15.49331878, "ECCENTRICITY": 0.0001586, "INCLINATION": 53.1597, "RA_OF_ASC_NODE": 166.2791, "ARG_OF_PERICENTER": 66.7649, "MEAN_ANOMALY": 293.3527, "EPHEMERIS_TYPE": 0, "CLASSIFICATION_TYPE": "U", "NORAD_CAT_ID": 66640, "ELEMENT_SET_NO": 999, "REV_AT_EPOCH": 488, "BSTAR": 0.001103034, "MEAN_MOTION_DOT": 0.00061432, "MEAN_MOTION_DDOT": 0}, "tle": {"line1": "1 66640U 25271Z   25351.10256160  .00061432  00000+0  11030-2 0  9998", "line2": "2 66640  53.1597 166.2791 0001586  66.7649 293.3527 15.49331878  4884"}}, "geometry": {"type": "Point", "coordinates": [-174.65425680048185, 30.7642595273131]}}, {"type": "Feature", "properties": {"norad_id": 66641, "name": "STARLINK-35923", "group": "last-30-days", "lat": 35.74551906812755, "lon": -168.51581690417515, "alt_km": 413.32835467304176, "timestamp": "2025-12-18T15:47:09.959746+00:00", "meta": {"OBJECT_NAME": "STARLINK-35923", "OBJECT_ID": "2025-271AA", "EPOCH": "2025-12-18T06:17:45.318048", "MEAN_MOTION": 15.49366998, "ECCENTRICITY": 0.00010112, "INCLINATION": 53.1596, "RA_OF_ASC_NODE": 160.7165, "ARG_OF_PERICENTER": 84.9337, "MEAN_ANOMALY": 275.1788, "EPHEMERIS_TYPE": 0, "CLASSIFICATION_TYPE": "U", "NORAD_CAT_ID": 66641, "ELEMENT_SET_NO": 999, "REV_AT_EPOCH": 506, "BSTAR": 0.0011901761, "MEAN_MOTION_DOT": 0.00066445, "MEAN_MOTION_DDOT": 0}, "tle": {"line1": "1 66641U 25271AA  25352.26233007  .00066445  00000+0  11902-2 0  9999", "line2": "2 66641  53.1596 160.7165 0001011  84.9337 275.1788 15.49366998  5066"}}, "geometry": {"type": "Point", "coordinates": [-168.51581690417515, 35.74551906812755]}}, {"type": "Feature", "properties": {"norad_id": 66642, "name": "STARLINK-35926", "group": "last-30-days", "lat": 34.417201238067555, "lon": -170.25955277816593, "alt_km": 413.72072982210375, "timestamp": "2025-12-18T15:47:09.959756+00:00", "meta": {"OBJECT_NAME": "STARLINK-35926", "OBJECT_ID": "2025-271AB", "EPOCH": "2025-12-18T06:18:15.191712", "MEAN_MOTION": 15.49345756, "ECCENTRICITY": 7.008e-05, "INCLINATION": 53.1591, "RA_OF_ASC_NODE": 160.7202, "ARG_OF_PERICENTER": 83.0215, "MEAN_ANOMALY": 277.0874, "EPHEMERIS_TYPE": 0, "CLASSIFICATION_TYPE": "U", "NORAD_CAT_ID": 66642, "ELEMENT_SET_NO": 999, "REV_AT_EPOCH": 502, "BSTAR": 0.0015416421, "MEAN_MOTION_DOT": 0.00086356, "MEAN_MOTION_DDOT": 0}, "tle": {"line1": "1 66642U 25271AB  25352.26267583  .00086356  00000+0  15416-2 0  9993", "line2": "2 66642  53.1591 160.7202 0000700  83.0215 277.0874 15.49345756  5025"}}, "geometry": {"type": "Point", "coordinates": [-170.25955277816593, 34.417201238067555]}}, {"type": "Feature", "properties": {"norad_id": 66643, "name": "STARLINK-35918", "group": "last-30-days", "lat": 31.68029158706308, "lon": -173.6003159114074, "alt_km": 413.8186427512028, "timestamp": "2025-12-18T15:47:09.959766+00:00", "meta": {"OBJECT_NAME": "STARLINK-35918", "OBJECT_ID": "2025-271AC", "EPOCH": "2025-12-18T06:19:16.343904", "MEAN_MOTION": 15.49357905, "ECCENTRICITY": 0.00011964, "INCLINATION": 53.1597, "RA_OF_ASC_NODE": 160.7256, "ARG_OF_PERICENTER": 80.8133, "MEAN_ANOMALY": 279.3012, "EPHEMERIS_TYPE": 0, "CLASSIFICATION_TYPE": "U", "NORAD_CAT_ID": 66643, "ELEMENT_SET_NO": 999, "REV_AT_EPOCH": 506, "BSTAR": 0.0020423406, "MEAN_MOTION_DOT": 0.00115023, "MEAN_MOTION_DDOT": 0}, "tle": {"line1": "1 66643U 25271AC  25352.26338361  .00115023  00000+0  20423-2 0  9995", "line2": "2 66643  53.1597 160.7256 0001196  80.8133 279.3012 15.49357905  5067"}}, "geometry": {"type": "Point", "coordinates": [-173.6003159114074, 31.68029158706308]}}, {"type": "Feature", "properties": {"norad_id": 66644, "name": "STARLINK-35938", "group": "last-30-days", "lat": 33.10571109459242, "lon": -171.89983064737834, "alt_km": 413.91781760638514, "timestamp": "2025-12-18T15:47:09.959776+00:00", "meta": {"OBJECT_NAME": "STARLINK-35938", "OBJECT_ID": "2025-271AD", "EPOCH": "2025-12-18T06:18:44.742240", "MEAN_MOTION": 15.49353977, "ECCENTRICITY": 5.84e-05, "INCLINATION": 53.1595, "RA_OF_ASC_NODE": 160.7232, "ARG_OF_PERICENTER": 73.1815, "MEAN_ANOMALY": 286.9258, "EPHEMERIS_TYPE": 0, "CLASSIFICATION_TYPE": "U", "NORAD_CAT_ID": 66644, "ELEMENT_SET_NO": 999, "REV_AT_EPOCH": 506, "BSTAR": 0.0016953254, "MEAN_MOTION_DOT": 0.00095145, "MEAN_MOTION_DDOT": 0}, "tle": {"line1": "1 66644U 25271AD  25352.26301785  .00095145  00000+0  16953-2 0  9991", "line2": "2 66644  53.1595 160.7232 0000584  73.1815 286.9258 15.49353977  5063"}}, "geometry": {"type": "Point", "coordinates": [-171.89983064737834, 33.10571109459242]}}, {"type": "Feature", "properties": {"norad_id": 66645, "name": "SHENZHOU-22", "group": "last-30-days", "lat": -39.72852077555066, "lon": -89.45854487055126, "alt_km": 397.14641500639755, "timestamp": "2025-12-18T15:47:09.959786+00:00", "meta": {"OBJECT_NAME": "SHENZHOU-22", "OBJECT_ID": "2025-272A", "EPOCH": "2025-12-18T06:53:03.575616", "MEAN_MOTION": 15.59417882, "ECCENTRICITY": 0.00077258, "INCLINATION": 41.4683, "RA_OF_ASC_NODE": 343.0261, "ARG_OF_PERICENTER": 79.3286, "MEAN_ANOMALY": 280.8422, "EPHEMERIS_TYPE": 0, "CLASSIFICATION_TYPE": "U", "NORAD_CAT_ID": 66645, "ELEMENT_SET_NO": 999, "REV_AT_EPOCH": 26357, "BSTAR": 0.00029030456, "MEAN_MOTION_DOT": 0.00023377, "MEAN_MOTION_DDOT": 0}, "tle": {"line1": "1 66645U 25272A   25352.28684694  .00023377  00000+0  29030-3 0  9997", "line2": "2 66645  41.4683 343.0261 0007725  79.3286 280.8422 15.59417882263579"}}, "geometry": {"type": "Point", "coordinates": [-89.45854487055126, -39.72852077555066]}}, {"type": "Feature", "properties": {"norad_id": 66647, "name": "COSMOS 2597 (RODNIK-S 22)", "group": "last-30-days", "lat": -80.61723138949829, "lon": -130.09460723372712, "alt_km": 1499.681259052255, "timestamp": "2025-12-18T15:47:09.959797+00:00", "meta": {"OBJECT_NAME": "COSMOS 2597 (RODNIK-S 22)", "OBJECT_ID": "2025-273A", "EPOCH": "2025-12-18T06:34:20.169984", "MEAN_MOTION": 12.41952042, "ECCENTRICITY": 0.00076554, "INCLINATION": 82.4991, "RA_OF_ASC_NODE": 283.0126, "ARG_OF_PERICENTER": 273.6334, "MEAN_ANOMALY": 86.387, "EPHEMERIS_TYPE": 0, "CLASSIFICATION_TYPE": "U", "NORAD_CAT_ID": 66647, "ELEMENT_SET_NO": 999, "REV_AT_EPOCH": 282, "BSTAR": -1.3314266e-05, "MEAN_MOTION_DOT": 8e-08, "MEAN_MOTION_DDOT": 0}, "tle": {"line1": "1 66647U 25273A   25352.27384456  .00000008  00000+0 -13314-4 0  9998", "line2": "2 66647  82.4991 283.0126 0007655 273.6334  86.3870 12.41952042  2821"}}, "geometry": {"type": "Point", "coordinates": [-130.09460723372712, -80.61723138949829]}}, {"type": "Feature", "properties": {"norad_id": 66648, "name": "COSMOS 2598 (RODNIK-S 23)", "group": "last-30-days", "lat": -21.193964715541085, "lon": -80.15867515944032, "alt_km": 1500.7321079289159, "timestamp": "2025-12-18T15:47:09.959809+00:00", "meta": {"OBJECT_NAME": "COSMOS 2598 (RODNIK-S 23)", "OBJECT_ID": "2025-273B", "EPOCH": "2025-12-18T06:14:38.403744", "MEAN_MOTION": 12.43233499, "ECCENTRICITY": 0.00080466, "INCLINATION": 82.503, "RA_OF_ASC_NODE": 283.0151, "ARG_OF_PERICENTER": 223.6497, "MEAN_ANOMALY": 136.3947, "EPHEMERIS_TYPE": 0, "CLASSIFICATION_TYPE": "U", "NORAD_CAT_ID": 66648, "ELEMENT_SET_NO": 999, "REV_AT_EPOCH": 282, "BSTAR": 2.371943e-06, "MEAN_MOTION_DOT": 1e-07, "MEAN_MOTION_DDOT": 0}, "tle": {"line1": "1 66648U 25273B   25352.26016671  .00000010  00000+0  23719-5 0  9992", "line2": "2 66648  82.5030 283.0151 0008046 223.6497 136.3947 12.43233499  2826"}}, "geometry": {"type": "Point", "coordinates": [-80.15867515944032, -21.193964715541085]}}, {"type": "Feature", "properties": {"norad_id": 66649, "name": "COSMOS 2599 (RODNIK-S 24)", "group": "last-30-days", "lat": -59.15526834244302, "lon": 115.53465724690555, "alt_km": 1504.2824501468613, "timestamp": "2025-12-18T15:47:09.959821+00:00", "meta": {"OBJECT_NAME": "COSMOS 2599 (RODNIK-S 24)", "OBJECT_ID": "2025-273C", "EPOCH": "2025-12-18T06:45:29.557440", "MEAN_MOTION": 12.4115099, "ECCENTRICITY": 0.00062778, "INCLINATION": 82.5048, "RA_OF_ASC_NODE": 283.0332, "ARG_OF_PERICENTER": 264.9981, "MEAN_ANOMALY": 95.0381, "EPHEMERIS_TYPE": 0, "CLASSIFICATION_TYPE": "U", "NORAD_CAT_ID": 66649, "ELEMENT_SET_NO": 999, "REV_AT_EPOCH": 282, "BSTAR": -3.2600663e-05, "MEAN_MOTION_DOT": 5e-08, "MEAN_MOTION_DDOT": 0}, "tle": {"line1": "1 66649U 25273C   25352.28159210  .00000005  00000+0 -32601-4 0  9996", "line2": "2 66649  82.5048 283.0332 0006277 264.9981  95.0381 12.41150990  2822"}}, "geometry": {"type": "Point", "coordinates": [115.53465724690555, -59.15526834244302]}}, {"type": "Feature", "properties": {"norad_id": 66650, "name": "BEE-1000", "group": "last-30-days", "lat": 11.970850633958992, "lon": -81.9156639324573, "alt_km": 599.9310627087125, "timestamp": "2025-12-18T15:47:09.959834+00:00", "meta": {"OBJECT_NAME": "BEE-1000", "OBJECT_ID": "2025-274A", "EPOCH": "2025-12-18T06:04:20.956512", "MEAN_MOTION": 14.9168004, "ECCENTRICITY": 0.00106199, "INCLINATION": 97.7399, "RA_OF_ASC_NODE": 279.3395, "ARG_OF_PERICENTER": 230.8945, "MEAN_ANOMALY": 129.133, "EPHEMERIS_TYPE": 0, "CLASSIFICATION_TYPE": "U", "NORAD_CAT_ID": 66650, "ELEMENT_SET_NO": 999, "REV_AT_EPOCH": 322, "BSTAR": 0.00011571138, "MEAN_MOTION_DOT": 1.109e-05, "MEAN_MOTION_DDOT": 0}, "tle": {"line1": "1 66650U 25274A   25352.25302033  .00001109  00000+0  11571-3 0  9996", "line2": "2 66650  97.7399 279.3395 0010619 230.8945 129.1330 14.91680040  3224"}}, "geometry": {"type": "Point", "coordinates": [-81.9156639324573, 11.970850633958992]}}]}